#cP2022  3 13  0  0  0.00000000     576 d+D   IGb14 EXT AIUB
## 2201      0.00000000   300.00000000 59651 0.0000000000000
+   77   G01G03G04G05G06G07G08G09G10G11G12G13G14G15G16G17G18
+        G19G20G21G22G23G24G25G26G27G28G29G30G31G32R01R02R03
+        R04R05R07R08R09R11R12R13R14R15R17R18R19R20R21R22R24
+        E01E02E03E04E05E07E08E09E10E11E12E13E14E15E18E19E21
+        E24E25E26E27E30E31E33E34E36  0  0  0  0  0  0  0  0
++         6  5  9  7  6  7  7  6  6  8  7  7  7  7  7  6  8
++         8  7  7  7  7  7  6  8  5  7  7  5  7  6  9  7  8
++         8  7  8  7  7  7  8  8  7  7  7  7  9  9  8  8  8
++         6  6  6  7  7  6  6  6  7  6  7  6  8  6  7  8  6
++         6  9  7  6  6  6  6  7  6  0  0  0  0  0  0  0  0
%c M  cc GPS ccc cccc cccc cccc cccc ccccc ccccc ccccc ccccc
%c cc cc ccc ccc cccc cccc cccc cccc ccccc ccccc ccccc ccccc
%f  1.2500000  1.025000000  0.00000000000  0.000000000000000
%f  0.0000000  0.000000000  0.00000000000  0.000000000000000
%i    0    0    0    0      0      0      0      0         0
%i    0    0    0    0      0      0      0      0         0
/* Center for Orbit Determination in Europe (CODE)          
/* Ultra-rapid GRE orbits starting year-day 22072 00 hour   
/* Observed/predicted: 24/24 hours (data used up to 072X)   
/* PCV:IGS14      OL/AL:FES2014b NONE     YN ORB:CoN CLK:BRD
*  2022  3 14 17 50  0.00000000
PG01  12519.912694 -21765.883379  -8367.407470    409.007753               P   P
PG03   6248.147938 -13898.099520 -21847.532920   -163.409007               P   P
PG04   2493.044169 -23174.399843 -12650.086476   -183.649860               P   P
PG05 -21423.074511   6503.910147  14245.342172    -74.666077               P   P
PG06 -15807.732906  -3268.517659 -21040.512881    231.295050               P   P
PG07  -2050.136626 -18291.087400  19356.584328    315.983038               P   P
PG08   9027.060689 -15323.409103  19581.993275    -59.841021               P   P
PG09  -6826.605729 -25512.563576  -2716.156180   -349.769012               P   P
PG10  21672.879511  11755.603012  10396.986884   -346.871065               P   P
PG11 -21607.703728   9805.892508 -11926.719068    -63.432799               P   P
PG12 -10522.011770  12213.750589 -21352.041140   -184.850307               P   P
PG13 -13756.576614   6832.412775  21498.452617    276.830795               P   P
PG14 -20534.260574 -13056.660868  10727.600376    -93.804320               P   P
PG15  -7256.251673  17006.402171  18548.942730    -76.812121               P   P
PG16  24163.582727   -645.958323  11249.024572   -480.613129               P   P
PG17 -13250.848272 -19441.962716 -11844.114686    587.177260               P   P
PG18   1008.210752  18217.923797  19259.544106    219.896325               P   P
PG19 -15116.948288 -12822.758914 -18030.942303    130.982134               P   P
PG20 -25727.207184   2624.175249   5468.038224    516.305590               P   P
PG21  17759.153984 -19028.037295   3660.811907    159.375241               P   P
PG22  15730.889045   9729.412652 -18725.607062    227.472752               P   P
PG23  12059.137589  15026.509445  18314.064276     -6.779596               P   P
PG24 -13759.301486  22224.194643  -3515.949055    268.043044               P   P
PG25   4378.638732  16039.655418 -21055.205773    298.272686               P   P
PG26  26314.241479   4657.392133   -738.689492    190.769627               P   P
PG27  14593.644324  -3071.632675  21789.843355    153.825255               P   P
PG28 -24309.518102  -9985.928045   3367.904673    380.563315               P   P
PG29   3343.943707  25956.630530  -4399.039410   -491.316551               P   P
PG30  -9696.051830 -12619.235264  21319.608410   -518.674388               P   P
PG31  18009.662475   1253.857739 -19755.828440   -168.915594               P   P
PG32  15874.294600  15789.802070 -14294.245637    -84.756899               P   P
PR01  14882.909137  19452.213576   7108.850643      7.238283               P   P
PR02  19081.543869  11468.967674 -12462.404618    512.333107               P   P
PR03  11584.204394  -3342.606372 -22438.149456     53.163045               P   P
PR04  -2418.520957 -15868.145157 -19789.731889    131.915271               P   P
PR05 -14900.129582 -19744.520301  -6166.762532     89.360422               P   P
PR07 -11025.501690   4068.212276  22676.549313     32.588019               P   P
PR08   2460.532693  16019.980512  19766.118273    -64.008970               P   P
PR09 -23136.782548    775.580172  10805.226750     44.363124               P   P
PR11 -10268.834081  12454.135063 -19748.374568     43.538690               P   P
PR12   9614.413911   8416.980377 -22060.824027     17.425977               P   P
PR13  22553.947563   -151.594676 -11939.777651    -19.440327               P   P
PR14  22858.086333  -9240.444112   6522.405237     75.370911               P   P
PR15   9594.150942 -12422.963118  20120.481169     97.543095               P   P
PR17  12150.034751 -15510.060209  16229.166607    509.489376               P   P
PR18   7566.817313 -24316.840330    730.358764    110.280556               P   P
PR19    167.717126 -21070.973530 -14371.224215   -181.562257               P   P
PR20  -9756.951195  -3385.868357 -23314.382486    -66.780071               P   P
PR21 -12001.204593  16627.693759 -15157.881867   -285.266554               P   P
PR22  -7348.809739  24484.525626    195.139607   -170.591811               P   P
PR24  10508.871729   2595.323256  23114.948375     84.362613               P   P
PE01  29278.364564   -535.196708   4356.868102   -596.732250               P   P
PE02 -29233.874671    656.761053  -4528.710674    286.239602               P   P
PE03 -18567.657284  -1199.686070  23024.320365   -537.323210               P   P
PE04   8090.494071 -18484.726903 -21648.736208   -984.478168               P   P
PE05 -18320.584348 -20546.737691  10884.706189   -200.416932               P   P
PE07   7409.218846  27675.358507   7432.233995   -648.298867               P   P
PE08  -7642.863457  18759.163886  21583.414981   -495.060896               P   P
PE09  -7736.609947 -27647.198969  -7230.021804   5328.633219               P   P
PE10  11623.386512 -26135.566620  -7612.375909   -500.507854               P   P
PE11   3458.357382 -24284.492492 -16555.971527   4230.744368               P   P
PE12  17650.349020 -23657.074497   2050.092683   4713.725132               P   P
PE13  -4023.351407  24540.477539  16071.467498    427.274765               P   P
PE14  15507.545298   1183.104457  17762.507280  -1778.081129               P   P
PE15 -17654.761457  23665.383969  -2191.642053    757.822048               P   P
PE18 -21438.261738  -4745.152781 -23780.822847  -1684.526107               P   P
PE19  19073.897598   3962.879615 -22279.445076  -1310.390557               P   P
PE21  24283.426424  10833.509947 -13020.440671   -722.508648               P   P
PE24  -3484.140403 -16812.814103  24089.919481   -505.201103               P   P
PE25 -24097.350266 -10961.576906  13230.342981   -566.780494               P   P
PE26  12679.638962  10186.628308  24737.945087   -911.977863               P   P
PE27   5063.533017  16717.169418 -23901.756597   -253.085943               P   P
PE30 -18017.388227  12229.000893 -20055.084491   -348.302736               P   P
PE31  16999.413388 -12716.337394  20632.373893   -493.510577               P   P
PE33  20818.830498  -8815.006914  19105.469720   -458.574201               P   P
PE34 -20842.942891   9068.604681 -18963.200768   -506.730201               P   P
PE36 -11891.494084 -10982.818878 -24774.654708   -345.229110               P   P
EOF
